NOAA 15                 
1 25338U 98030A   20237.91714452  .00000002  00000-0  19526-4 0  9997
2 25338  98.7139 262.6078 0011437  66.8331 293.4052 14.25986598158730
DMSP 5D-3 F15 (USA 147) 
1 25991U 99067A   20237.88750135 -.00000110  00000-0 -32316-4 0  9991
2 25991  98.9756 209.7979 0008828 267.5405 146.5312 14.16474536 70112
METEOSAT-8 (MSG-1)      
1 27509U 02040B   20237.68542196  .00000121  00000-0  00000+0 0  9997
2 27509   6.8407  53.7983 0001533  78.8804 128.9218  1.00276472 65968
DMSP 5D-3 F16 (USA 172) 
1 28054U 03048A   20237.95203802 -.00000104  00000-0 -31664-4 0  9998
2 28054  98.9175 216.7938 0008230  35.2629 345.3584 14.13647418869460
NOAA 18                 
1 28654U 05018A   20237.87240651  .00000073  00000-0  64103-4 0  9994
2 28654  99.0383 294.9215 0014840  42.1828 318.0482 14.12534290786573
METEOSAT-9 (MSG-2)      
1 28912U 05049B   20237.82151003  .00000004  00000-0  00000-0 0  9998
2 28912   4.5657  69.8602 0002338  23.4927 179.5833  1.00278402 53755
FORMOSAT-3 FM6          
1 29047U 06011A   20237.67114026 -.00000014  00000-0  10747-4 0  9990
2 29047  71.9804 330.7556 0052004 303.2792  56.3367 14.28747964751060
FORMOSAT-3 FM1          
1 29048U 06011B   20237.41145773  .00000022  00000-0  25238-4 0  9995
2 29048  71.9642 242.1142 0045835 263.2477  96.3443 14.28712491753515
FORMOSAT-3 FM5          
1 29049U 06011C   20237.89876215  .00000025  00000-0  26102-4 0  9994
2 29049  72.0203  53.1552 0036569 287.5257  72.1885 14.28793806749375
FORMOSAT-3 FM3          
1 29050U 06011D   20237.29742675  .00000065  00000-0  24082-4 0  9991
2 29050  72.0154 193.5400 0050627 203.7274 156.1545 14.58939494766220
FORMOSAT-3 FM4          
1 29051U 06011E   20237.61737537  .00000031  00000-0  27732-4 0  9997
2 29051  72.0063 315.6548 0067763 168.5510 191.7187 14.28825280751922
FORMOSAT-3 FM2          
1 29052U 06011F   20237.89198046  .00000034  00000-0  29597-4 0  9998
2 29052  72.0353  29.5015 0041590 248.3434 111.3271 14.28930875749473
GOES 13                 
1 29155U 06018A   20237.83293793  .00000023  00000-0  00000-0 0  9990
2 29155   0.0687 172.2350 0007774  24.1851 138.1768  1.00272598 22081
METOP-A                 
1 29499U 06044A   20237.90886574 -.00000025  00000-0  77662-5 0  9999
2 29499  98.5169 282.3323 0001774  87.3705 256.7929 14.21487888718428
DMSP 5D-3 F17 (USA 191) 
1 29522U 06050A   20237.83976433 -.00000053  00000-0 -47038-5 0  9995
2 29522  98.8003 253.2069 0009563 350.1828   9.9157 14.14014957712374
FENGYUN 3A              
1 32958U 08026A   20237.90824425 -.00000001  00000-0  18997-4 0  9991
2 32958  98.4111 220.1168 0009532 133.0191 227.1786 14.18631466634422
FENGYUN 2E              
1 33463U 08066A   20237.90988002 -.00000219  00000-0  00000-0 0  9992
2 33463   4.4793  68.3327 0002696 295.2858  24.1939  1.00268793 42807
NOAA 19                 
1 33591U 09005A   20237.88107063  .00000039  00000-0  46697-4 0  9990
2 33591  99.1964 245.0107 0013049 242.2463 117.7384 14.12428415594797
GOES 14                 
1 35491U 09033A   20237.59691149 -.00000108  00000-0  00000+0 0  9994
2 35491   0.4330 272.0304 0012420 297.9007 233.7310  1.00272646 40871
METEOR-M 1              
1 35865U 09049A   20237.89966205  .00000010  00000-0  23158-4 0  9992
2 35865  98.4433 222.0467 0002557  21.0226 339.1057 14.22246927567505
DMSP 5D-3 F18 (USA 210) 
1 35951U 09057A   20237.92531728  .00000056  00000-0  52323-4 0  9995
2 35951  98.6490 225.5270 0011208 166.8685 193.2781 14.13295069333354
GOES 15                 
1 36411U 10008A   20237.72354407  .00000035  00000-0  00000+0 0  9997
2 36411   0.0439 123.6619 0002018 341.4439   1.0972  1.00282917 38381
COMS 1                  
1 36744U 10032A   20237.84628503 -.00000361  00000-0  00000-0 0  9991
2 36744   0.0294  96.8414 0000773  31.5310 277.9999  1.00270868 29806
FENGYUN 3B              
1 37214U 10059A   20237.89141653 -.00000004  00000-0  21048-4 0  9997
2 37214  99.0505 220.6990 0018027  73.7686 286.5473 14.15955344507367
SUOMI NPP               
1 37849U 11061A   20237.84362708  .00000000  00000-0  20932-4 0  9992
2 37849  98.7383 174.8574 0001546  76.9479 346.8269 14.19542201457334
FENGYUN 2F              
1 38049U 12002A   20237.96277221 -.00000375  00000-0  00000-0 0  9995
2 38049   2.2170  83.3917 0000600  74.9727 274.1982  1.00271852 31600
METEOSAT-10 (MSG-3)     
1 38552U 12035B   20237.89443926  .00000047  00000-0  00000-0 0  9994
2 38552   1.3509 343.9696 0001775 133.4253 187.6474  1.00273352 29601
METOP-B                 
1 38771U 12049A   20237.92667575 -.00000022  00000-0  96782-5 0  9995
2 38771  98.6862 296.1703 0001790 130.3649  38.4225 14.21502749411755
FENGYUN 3C              
1 39260U 13052A   20237.89281356 -.00000015  00000-0  13625-4 0  9995
2 39260  98.5446 285.4995 0011486  25.2894 334.8841 14.15843755358235
METEOR-M 2              
1 40069U 14037A   20237.78914748 -.00000027  00000-0  67835-5 0  9990
2 40069  98.4973 272.7242 0006878  84.5514 275.6443 14.20674615317911
HIMAWARI-8              
1 40267U 14060A   20237.84881487 -.00000292  00000-0  00000-0 0  9996
2 40267   0.0397 249.2700 0000934 288.7033 241.8339  1.00270273 21477
FENGYUN 2G              
1 40367U 14090A   20237.91232263 -.00000314  00000-0  00000-0 0  9995
2 40367   2.2411  93.7159 0001120 332.7510 334.7599  1.00261580 20758
METEOSAT-11 (MSG-4)     
1 40732U 15034A   20237.82089938 -.00000014  00000-0  00000-0 0  9996
2 40732   0.6815 271.6805 0003438 232.4630 125.4137  1.00278612 18756
ELEKTRO-L 2             
1 41105U 15074A   20237.88972852 -.00000132  00000-0  00000-0 0  9998
2 41105   1.3593  96.5090 0002931  83.0434  99.9903  1.00267613 17238
HIMAWARI-9              
1 41836U 16064A   20237.92061005 -.00000291  00000-0  00000-0 0  9999
2 41836   0.0379 298.4424 0001020 186.0429 321.3348  1.00272684 13906
GOES 16                 
1 41866U 16071A   20237.80580757 -.00000264  00000-0  00000-0 0  9997
2 41866   0.0363 118.2706 0000544  77.9627 352.1887  1.00270633 13836
FENGYUN 4A              
1 41882U 16077A   20237.96307535 -.00000347  00000-0  00000-0 0  9991
2 41882   0.1064  88.1197 0003829  40.6444 296.2401  1.00274924 13708
CYGFM05                 
1 41884U 16078A   20237.70486074  .00000273  00000-0  16117-4 0  9999
2 41884  34.9575 355.9868 0016606 294.6293  65.2689 15.14667531204469
CYGFM04                 
1 41885U 16078B   20237.71795298  .00000259  00000-0  15153-4 0  9995
2 41885  34.9506 348.7320 0014924 304.9773  54.9536 15.15180495204530
CYGFM02                 
1 41886U 16078C   20237.71080072  .00000279  00000-0  16215-4 0  9995
2 41886  34.9597 350.5553 0015692 300.9932  58.9238 15.15179488204528
CYGFM01                 
1 41887U 16078D   20237.74787035  .00000263  00000-0  15656-4 0  9993
2 41887  34.9542 356.9616 0017063 295.6229  64.2719 15.14479921204452
CYGFM08                 
1 41888U 16078E   20237.72087983  .00000270  00000-0  15869-4 0  9991
2 41888  34.9512 352.6254 0016196 302.2615  57.6527 15.14895687204488
CYGFM06                 
1 41889U 16078F   20237.68997754  .00000288  00000-0  16698-4 0  9993
2 41889  34.9593 349.3761 0014651 300.7281  59.1987 15.15173792204529
CYGFM07                 
1 41890U 16078G   20237.73431323  .00000261  00000-0  15298-4 0  9992
2 41890  34.9530 348.1619 0014377 304.2141  55.7208 15.15172007204537
CYGFM03                 
1 41891U 16078H   20237.72993360  .00000256  00000-0  15022-4 0  9995
2 41891  34.9563 348.4548 0013870 302.8937  57.0440 15.15167525204534
FENGYUN 3D              
1 43010U 17072A   20237.79878622 -.00000015  00000-0  13635-4 0  9997
2 43010  98.7530 176.3606 0000442 207.9121 152.2043 14.19747098143895
NOAA 20                 
1 43013U 17073A   20237.86613475  .00000009  00000-0  24991-4 0  9991
2 43013  98.7196 174.7614 0001383  99.8588 260.2744 14.19559941143365
GOES 17                 
1 43226U 18022A   20237.72162488  .00000082  00000-0  00000-0 0  9992
2 43226   0.0586 287.7918 0000365 172.2844 355.9674  1.00268943  9137
FENGYUN 2H              
1 43491U 18050A   20237.69301148 -.00000143  00000-0  00000-0 0  9990
2 43491   0.5011 271.1407 0003013 237.3268 153.5037  1.00274195  8225
METOP-C                 
1 43689U 18087A   20237.93113269 -.00000022  00000-0  98645-5 0  9994
2 43689  98.6925 296.5100 0003012 130.0378 230.1064 14.21501139 93322
GEO-KOMPSAT-2A          
1 43823U 18100A   20237.84637227 -.00000360  00000-0  00000-0 0  9993
2 43823   0.0163 125.1666 0002254 344.5279 296.8352  1.00269960  6325
IOD-1 GEMS              
1 44385U 98067QK  20237.60986975  .00015769  00000-0  18180-3 0  9997
2 44385  51.6403 349.1965 0001441 238.2108 121.8746 15.62130754 65134
METEOR-M2 2             
1 44387U 19038A   20237.89017057 -.00000020  00000-0  10203-4 0  9991
2 44387  98.6252 196.5943 0002297  58.8021 301.3383 14.23680549 59277
